IRIDIUM 7               
1 24793U 97020B   24292.68978462  .00001760  00000+0  60547-3 0  9990
2 24793  86.3900 278.0776 0002263  96.0161 264.1294 14.35511582437249
IRIDIUM 5               
1 24795U 97020D   24292.68328760  .00013261  00000+0  12014-2 0  9996
2 24795  86.3977 194.6772 0114004 283.5991  75.2559 14.90355762449442
IRIDIUM 4               
1 24796U 97020E   24293.03501365  .00001508  00000+0  50825-3 0  9995
2 24796  86.3898 274.9649 0002184  89.3528 270.7919 14.36431258437874
IRIDIUM 914             
1 24836U 97030A   24293.21834150  .00002282  00000+0  71364-3 0  9993
2 24836  86.3875 284.2209 0001107  43.8164 316.3123 14.40350429434534
IRIDIUM 16              
1 24841U 97030F   24293.09761874  .00001649  00000+0  53662-3 0  9994
2 24841  86.3989 306.5923 0004084 113.5805 246.5822 14.38233475432605
IRIDIUM 911             
1 24842U 97030G   24293.11095740  .00002213  00000+0  60303-3 0  9998
2 24842  86.4413 305.5997 0014405 172.3427 187.7999 14.46979795440195
IRIDIUM 17              
1 24870U 97034B   24293.21410849  .00001898  00000+0  62978-3 0  9993
2 24870  86.3972 336.1168 0003837  88.6690 271.4947 14.37350145428960
IRIDIUM 920             
1 24871U 97034C   24293.45921730  .00001833  00000+0  56348-3 0  9999
2 24871  86.3947 315.7967 0012671 147.0240 213.1753 14.41042722432169
